[{"OBJECT_NAME":"STARLINK-30339","OBJECT_ID":"2023-144U","EPOCH":"2026-03-09T22:00:01.999584","MEAN_MOTION":15.2672605,"ECCENTRICITY":0.00013718,"INCLINATION":43.0007,"RA_OF_ASC_NODE":283.9774,"ARG_OF_PERICENTER":271.6019,"MEAN_ANOMALY":8.7233,"EPHEMERIS_TYPE":0,"CLASSIFICATION_TYPE":"U","NORAD_CAT_ID":57882,"ELEMENT_SET_NO":999,"REV_AT_EPOCH":578,"BSTAR":0.00099307862,"MEAN_MOTION_DOT":0.00026462,"MEAN_MOTION_DDOT":0},{"OBJECT_NAME":"HAWK-11C","OBJECT_ID":"2024-247E","EPOCH":"2026-03-09T12:17:35.407968","MEAN_MOTION":15.2884802,"ECCENTRICITY":0.00059001,"INCLINATION":45.0045,"RA_OF_ASC_NODE":114.8762,"ARG_OF_PERICENTER":329.704,"MEAN_ANOMALY":30.3502,"EPHEMERIS_TYPE":0,"CLASSIFICATION_TYPE":"U","NORAD_CAT_ID":62381,"ELEMENT_SET_NO":999,"REV_AT_EPOCH":6774,"BSTAR":0.00033290115,"MEAN_MOTION_DOT":9.223e-5,"MEAN_MOTION_DDOT":0}]
